# From MPEC 2023-KD6
P/2020 B4 (Sheppard),e,11.6089,185.9785,342.0264,7.966529,0.0438329,0.19188486,29.3397,09/19.0/2023,2000,g 10.5,4.0
# From MPEC 2023-R20
C/2020 F2 (ATLAS),h,07/14.5593/2022,163.5890,250.2957,48.3164,1.005259,8.816174,2000,4.5,4.0
# From MPEC 2021-O56
C/2020 F3 (NEOWISE),e,129.1488,61.0917,37.3784,365.6414,0.0001410,0.99919100,0.0000,07/03.8269/2020,2000,g  7.5,5.2
# From MPEC 2023-R20
C/2020 F5 (MASTER),e,52.2048,350.4990,310.6829,174.3068,0.0004283,0.97518498,0.0000,03/17.3572/2021,2000,g  6.5,3.2
# From MPEC 2020-L06
C/2020 F6 (PANSTARRS),e,174.5830,207.9057,344.5208,393.4044,0.0001263,0.99109370,0.0000,04/11.6478/2020,2000,g 14.5,2.8
# From MPEC 2023-J95
C/2020 F7 (Lemmon),e,93.9527,321.8640,227.9470,566.7055,0.0000731,0.99059088,0.0000,11/13.6613/2021,2000,g  7.0,4.0
# From MPEC 2023-J29
C/2020 F8 (SWAN),h,05/27.1663/2020,110.6118,259.8664,68.0786,1.000179,0.429566,2000,10.0,4.0
# From MPEC 2020-L06
P/2020 G1 (Pimentel),e,18.5157,240.1353,207.5863,3.608103,0.1438089,0.86050312,184.1051,09/19.0/2023,2000,g 17.0,4.0
# From MPEC 2022-YB4
C/2020 H2 (Pruyne),e,124.8823,277.6678,26.6535,188.3275,0.0003814,0.99558922,0.0000,04/27.8226/2020,2000,g 14.0,3.2
# From MPEC 2020-HM1
C/2020 H3 (Wierzchos),p,06/05.7162/2020,62.5292,30.4456,2.300288,270.6227,2000,13.5,4.0
# From MPEC 2020-L06
C/2020 H4 (Leonard),e,84.4940,307.6143,117.5399,47.82779,0.0029798,0.98067516,0.0000,08/29.6557/2020,2000,g 15.0,3.2
# From MPEC 2023-N01
C/2020 H5 (Robinson),e,70.2571,210.6278,326.3223,4054,0.0000038,0.99769606,0.0000,12/10.5305/2020,2000,g  5.0,4.0
# From MPEC 2023-R20
C/2020 H6 (ATLAS),e,79.9778,213.7214,20.2867,5574,0.0000024,0.99915650,0.0000,09/30.5300/2021,2000,g  8.0,3.2
# From MPEC 2020-KB7
C/2020 H7 (Lemmon),e,135.9235,323.5194,82.6780,1405,0.0000187,0.99685380,0.0000,06/02.9510/2020,2000,g 11.0,4.0
# From MPEC 2021-N06
C/2020 H8 (PANSTARRS),e,99.6966,68.4336,128.9283,599.2593,0.0000672,0.99220053,0.0000,06/04.5298/2020,2000,g 10.5,4.0
# From MPEC 2022-ED3
A/2020 H9,e,137.8797,213.1856,312.8122,369.3224,0.0001389,0.99303589,0.0000,12/21.7590/2019,2000,g 18.0,2.0
# From MPEC 2023-HN7
C/2020 H11 (PANSTARRS-Lemmon),h,09/14.8959/2020,151.3972,303.0396,91.4580,1.002082,7.626329,2000,8.5,4.0
# From MPEC 2023-KD6
C/2020 J1 (SONEAR),h,04/18.6166/2021,142.3058,226.6097,341.7275,1.000706,3.352160,2000,8.5,3.2
# From MPEC 2023-R20
C/2020 K1 (PANSTARRS),e,89.6727,94.3580,213.9864,39417,0.0000001,0.99992203,0.0000,05/09.0908/2023,2000,g  5.5,4.0
# From MPEC 2021-N06
C/2020 K2 (PANSTARRS),h,08/06.3483/2020,91.0222,288.4048,67.3523,1.003809,8.880064,2000,10.8,4.0
# From MPEC 2020-KF9
C/2020 K3 (Leonard),p,06/01.0032/2020,129.0152,64.4924,1.583069,28.3546,2000,14.5,4.0
# From MPEC 2020-L06
C/2020 K4 (PANSTARRS),e,125.5845,264.2192,308.8684,23.97155,0.0083977,0.92687383,10.8659,09/19.0/2023,2000,g 16.5,4.0
# From MPEC 2021-R75
C/2020 K5 (PANSTARRS),h,06/05.3768/2021,67.1021,86.1574,249.6185,1.001312,1.537236,2000,11.0,4.0
# From MPEC 2023-N01
C/2020 K6 (Rankin),h,09/15.8289/2021,103.6480,291.5631,44.3384,1.003661,5.868832,2000,8.0,4.0
# From MPEC 2023-A50
C/2020 K7 (PANSTARRS),e,32.0430,286.0898,358.2428,97.94273,0.0010168,0.93471249,1.4461,09/19.0/2023,2000,g  8.0,4.0
# From MPEC 2021-P47
C/2020 K8 (Catalina-ATLAS),h,09/14.9888/2020,31.4209,181.5221,259.9589,1.000203,0.471406,2000,15.0,3.2
# From MPEC 2021-BE3
P/2020 K9 (Lemmon-PANSTARRS),e,23.2065,166.2463,197.0943,4.203737,0.1143538,0.32115186,108.4707,09/19.0/2023,2000,g 12.5,4.0
# From MPEC 2023-C45
P/2020 M1 (PANSTARRS),e,8.5346,142.6107,72.6503,5.316873,0.0803933,0.47328065,109.6548,09/19.0/2023,2000,g 14.5,4.0
# From MPEC 2022-H30
C/2020 M3 (ATLAS),e,23.4799,71.1397,328.5924,27.14584,0.0069687,0.95325517,7.3732,09/19.0/2023,2000,g 14.5,4.0
# From MPEC 2023-N01
A/2020 M4,h,11/24.1128/2020,160.1233,348.6235,104.6199,1.001096,5.949568,2000,14.5,2.0
# From MPEC 2023-Q33
P/2020 MK4 (PANSTARRS),e,6.7934,0.7120,98.1016,6.211053,0.0636731,0.01243290,272.1216,09/19.0/2023,2000,g  8.0,4.0
# From MPEC 2023-FK0
C/2020 M5 (ATLAS),h,08/19.8608/2021,93.2147,352.0857,126.2892,1.000368,3.001995,2000,9.0,4.0
# From MPEC 2022-GA9
C/2020 N1 (PANSTARRS),h,03/12.4450/2021,29.7360,279.9100,186.7650,1.000500,1.317889,2000,12.5,4.0
# From MPEC 2021-P47
C/2020 N2 (ATLAS),e,161.0324,257.1786,331.3169,104.6959,0.0009200,0.98288830,0.0000,08/24.2289/2020,2000,g 16.0,3.2
# From MPEC 2023-R20
C/2020 O2 (Amaral),h,08/28.3931/2021,71.7617,256.7801,10.2923,1.001307,4.862198,2000,8.0,3.2
# From MPEC 2023-C45
P/2020 O3 (PANSTARRS),e,8.4444,266.8184,81.6031,4.647409,0.0983757,0.10294974,94.6654,09/19.0/2023,2000,g 12.0,4.0
# From MPEC 2021-BE3
C/2020 P1 (NEOWISE),h,10/20.5546/2020,45.1978,53.4789,8.8931,1.000337,0.340823,2000,14.0,3.2
# From MPEC 2023-O39
C/2020 P3 (ATLAS),h,04/21.6016/2021,61.8891,19.4658,82.2854,1.001958,6.812718,2000,6.0,4.0
# From MPEC 2022-PB4
C/2020 PV6 (PANSTARRS),e,128.2180,329.1487,71.3736,42.07138,0.0036118,0.94546357,2.6109,09/19.0/2023,2000,g 10.0,4.0
# From MPEC 2022-L66
C/2020 Q1 (Borisov),e,142.9511,52.3804,9.9728,61.09505,0.0020639,0.97841069,0.0000,08/14.4039/2020,2000,g 14.0,4.0
# From MPEC 2023-CD7
C/2020 Q2 (PANSTARRS),e,3.3359,179.8253,118.2804,10.63581,0.0284150,0.49119008,37.7639,09/19.0/2023,2000,g 12.0,3.2
# From MPEC 2022-X67
C/2020 R2 (PANSTARRS),e,53.2282,195.0935,211.8127,415.9031,0.0001162,0.98871473,0.0000,02/25.0318/2022,2000,g  9.0,4.0
# From MPEC 2022-K19
C/2020 R4 (ATLAS),e,164.4455,323.2691,46.6644,99.76192,0.0009891,0.98971590,0.0000,03/02.2641/2021,2000,g 13.5,4.0
# From MPEC 2023-C45
P/2020 R5 (PANSTARRS),e,11.4431,272.9621,82.6689,4.988677,0.0884557,0.31432144,106.8113,09/19.0/2023,2000,g  9.5,6.0
# From MPEC 2021-Y10
C/2020 R6 (Rankin),e,82.8152,12.1799,271.9950,308.4518,0.0001819,0.98983542,0.0000,09/08.1736/2019,2000,g 11.0,4.0
# From MPEC 2023-R20
C/2020 R7 (ATLAS),h,09/16.2518/2022,114.8995,268.2891,347.8416,1.000266,2.955907,2000,7.0,3.2
# From MPEC 2021-BE3
P/2020 S1 (PANSTARRS),e,13.7256,129.4592,255.0655,5.995084,0.0671446,0.50771425,65.4232,09/19.0/2023,2000,g 14.0,4.0
# From MPEC 2022-ST7
C/2020 S2 (PANSTARRS),e,22.4045,197.6624,202.3626,10.22918,0.0301261,0.82818785,30.1477,09/19.0/2023,2000,g 17.0,4.0
# From MPEC 2022-C56
C/2020 S3 (Erasmus),e,20.0167,222.5992,350.0829,149.1860,0.0005409,0.99734524,0.0000,12/11.8351/2020,2000,g 13.5,3.2
# From MPEC 2023-O39
C/2020 S4 (PANSTARRS),h,02/09.2399/2023,20.5680,117.7162,20.9939,1.001522,3.369703,2000,8.5,3.2
# From MPEC 2021-BE3
P/2020 S5 (PANSTARRS),e,12.3449,315.9938,53.2597,4.055065,0.1207000,0.33835797,137.0949,09/19.0/2023,2000,g 14.5,4.0
# From MPEC 2021-BE3
P/2020 S7 (PANSTARRS),e,16.0842,328.0310,40.6228,5.032059,0.0873143,0.41056952,90.3003,09/19.0/2023,2000,g 14.5,4.0
# From MPEC 2021-P47
C/2020 S8 (Lemmon),e,108.5273,24.0694,160.2503,258.2478,0.0002375,0.99086019,0.0000,04/10.7809/2021,2000,g 12.5,4.0
# From MPEC 2022-ST7
C/2020 T2 (Palomar),e,27.8550,82.9648,150.5119,295.2708,0.0001943,0.99303209,0.0000,07/10.8648/2021,2000,g 11.0,3.2
# From MPEC 2021-N06
P/2020 T3 (PANSTARRS),e,7.3002,73.9856,357.0448,3.516774,0.1494471,0.59225237,145.1131,09/19.0/2023,2000,g 18.0,3.2
# From MPEC 2021-N06
C/2020 T4 (PANSTARRS),h,07/05.4126/2021,83.8486,50.6171,79.6022,1.000339,2.190924,2000,13.0,3.2
# From MPEC 2021-BE3
C/2020 T5 (Lemmon),e,66.5504,237.8340,90.3474,720.2771,0.0000510,0.99737280,0.0000,10/09.1487/2020,2000,g 16.0,4.0
# From MPEC 2021-N06
P/2020 U2 (PANSTARRS),e,6.4189,342.8724,84.6626,3.777929,0.1342219,0.51126514,133.7832,09/19.0/2023,2000,g 18.0,4.0
# From MPEC 2021-W31
C/2020 U3 (Rankin),e,30.1526,282.6227,124.3777,66.80743,0.0018050,0.96590447,1.7233,09/19.0/2023,2000,g 15.0,4.0
# From MPEC 2023-R20
C/2020 U4 (PANSTARRS),h,04/09.3151/2022,167.0189,120.3486,70.0457,1.000415,5.358554,2000,7.0,4.0
# From MPEC 2023-R20
C/2020 U5 (PANSTARRS),e,97.2786,107.3226,75.4385,3626,0.0000045,0.99896391,0.0000,04/27.9727/2022,2000,g  8.0,4.0
# From MPEC 2023-R20
C/2020 V2 (ZTF),h,05/08.5012/2023,131.6117,212.3710,162.4021,1.001137,2.227662,2000,4.9,4.0
# From MPEC 2023-D72
P/2020 V3 (PANSTARRS),e,23.0331,198.2520,249.4253,8.389747,0.0405584,0.25725002,38.5619,09/19.0/2023,2000,g  8.3,4.0
# From MPEC 2023-KD6
P/2020 V4 (Rankin),e,14.2446,203.4820,257.0565,9.373635,0.0343433,0.45073658,27.2151,09/19.0/2023,2000,g  9.0,4.0
# From MPEC 2021-BE3
P/2020 W1 (Rankin),e,10.7852,124.2728,265.2351,7.217519,0.0508302,0.26633853,63.9247,09/19.0/2023,2000,g 10.0,4.0
# From MPEC 2021-BE3
C/2020 W5 (Lemmon),h,11/30.1697/2020,88.6046,75.4587,24.5143,1.000919,3.366008,2000,15.0,4.0
# From MPEC 2023-R20
P/2020 WJ5 (Lemmon),e,22.2924,177.8064,338.1099,6.015203,0.0668080,0.17142610,54.1617,09/19.0/2023,2000,g  8.5,4.0
# From MPEC 2021-P47
P/2020 X1 (ATLAS),e,31.6940,55.9838,323.4716,4.531813,0.1021636,0.36536591,118.0029,09/19.0/2023,2000,g 13.0,4.0
# From MPEC 2023-R20
C/2020 X2 (ATLAS),e,18.1847,105.4065,347.3952,16.46835,0.0147479,0.76761544,15.2897,09/19.0/2023,2000,g 10.6,4.0
# From MPEC 2021-S45
C/2020 X4 (Leonard),e,80.6111,161.8861,140.3137,40.60379,0.0038094,0.87135809,3.9511,09/19.0/2023,2000,g  9.0,4.0
# From MPEC 2023-R20
C/2020 Y2 (ATLAS),e,101.2787,26.5197,266.3310,3970,0.0000039,0.99920918,0.0000,06/18.5188/2022,2000,g  6.5,4.0
# From MPEC 2021-R75
C/2020 Y3 (ATLAS),e,83.1024,191.4368,341.9266,141.2497,0.0005871,0.98587576,0.0000,12/03.2876/2020,2000,g 13.5,4.0
# From MPEC 2023-CD7
C/2021 A1 (Leonard),h,01/03.2953/2022,132.7271,255.9026,225.1263,1.000049,0.616004,2000,8.5,4.0
# From MPEC 2022-F14
C/2021 A2 (NEOWISE),e,106.9959,125.1762,338.7719,230.4349,0.0002818,0.99387232,0.0000,01/22.3511/2021,2000,g 13.5,4.0
# From MPEC 2022-ED3
C/2021 A4 (NEOWISE),e,111.5444,307.1094,204.7126,42.40020,0.0035699,0.97292892,0.0000,03/19.6567/2021,2000,g 16.0,4.0
# From MPEC 2021-BE3
P/2021 A5 (PANSTARRS),e,18.1824,328.7550,61.3901,3.047580,0.1852557,0.13995071,192.6641,09/19.0/2023,2000,g 15.0,4.0
# From MPEC 2023-O39
